satname,norad_id,inclination_deg,eccentricity,mean_motion_rev_per_day,perigee_km,apogee_km,l1,l2
STARLINK-1316,45415,53.1558,0.000655,15.36669982,451.48834552678363,460.4410187303729,1 45415U 20019BH  26139.32445385  .00037181  00000+0  10283-2 0  9991,2 45415  53.1558 159.5605 0006550  10.9789 349.1356 15.36669982340833
STARLINK-1286,45417,53.0454,0.0001433,15.59839298,387.15216390977275,389.09137367290805,1 45417U 20019BK  26140.00002315  .01037365  00000+0  11546-1 0  9999,2 45417  53.0454 146.5455 0001433  94.1219 256.5703 15.59839298  5799
STARLINK-1308,45419,53.0463,0.0008458,15.63305206,372.40292525750556,383.83180514167725,1 45419U 20019BM  26139.34714302  .00069856  00000+0  74480-3 0  9999,2 45419  53.0463 169.3988 0008458 342.4863  17.5858 15.63305206340681
STARLINK-1329,45531,53.0434,0.0005146,15.70511392,353.9683234277154,360.9005735625078,1 45531U 20025A   26139.17236129  .00044311  00000+0  35637-3 0  9998,2 45531  53.0434  95.0108 0005146  71.2896 288.8679 15.70511392336498
STARLINK-1338,45532,53.0445,0.0004663,15.6577372,367.86733903102413,374.1615976904186,1 45532U 20025B   26139.13418402  .00033376  00000+0  32739-3 0  9990,2 45532  53.0445 101.1112 0004663  45.4735 314.6660 15.65773720336401
STARLINK-1350,45535,53.072,0.0001597,15.37803575,451.51489114003743,453.6966303778245,1 45535U 20025E   26139.92795081  .00015049  00000+0  40880-3 0  9994,2 45535  53.0720  58.1272 0001597  68.4536 291.6637 15.37803575337113
STARLINK-1362,45538,53.1576,0.0003567,15.35079527,458.244880284823,463.1236953915668,1 45538U 20025H   26139.67557000 -.00117719  00000+0 -34509-2 0  9995,2 45538  53.1576 130.1007 0003567  67.8875 292.2506 15.35079527336066
STARLINK-1368,45540,53.1572,0.0005004,15.35494781,456.02972467486507,462.87278299930404,1 45540U 20025K   26139.68932469  .00020914  00000+0  60680-3 0  9993,2 45540  53.1572 130.4090 0005004  52.7332 307.4127 15.35494781336059
STARLINK-1371,45542,53.0445,0.0006753,15.58523116,387.35883651545737,396.502489901387,1 45542U 20025M   26139.34347973  .00069475  00000+0  89067-3 0  9993,2 45542  53.0445 108.8334 0006753  49.7544 310.4057 15.58523116336317
STARLINK-1372,45543,53.1564,0.0004347,15.35981015,455.03648933990917,460.9798339434401,1 45543U 20025N   26139.26401441  .00037864  00000+0  10707-2 0  9997,2 45543  53.1564 131.9716 0004347  42.4747 317.6592 15.35981015335092
STARLINK-1373,45544,53.0458,0.0004369,15.67497731,363.11832011782917,369.01140370476696,1 45544U 20025P   26139.62167237  .00039927  00000+0  36417-3 0  9999,2 45544  53.0458 104.2098 0004369  25.8384 334.2849 15.67497731336404
STARLINK-1327,45555,53.0416,0.0005334,15.65199846,369.0631891166877,376.2649436943284,1 45555U 20025AA  26139.57033186  .00035789  00000+0  35860-3 0  9993,2 45555  53.0416  81.2891 0005334  29.8539 330.2779 15.65199846336710
STARLINK-1356,45564,53.046,0.0004584,15.55179899,398.5218905193906,404.7375806625814,1 45564U 20025AK  26139.58028057  .00071323  00000+0  10354-2 0  9999,2 45564  53.0460  93.5305 0004584  42.5366 317.5998 15.55179899336548
STARLINK-1357,45565,53.0462,0.0007739,15.67102284,361.97916562458613,372.41959727579433,1 45565U 20025AL  26139.90552694  .00044309  00000+0  40946-3 0  9990,2 45565  53.0462  49.8099 0007739  66.5878 293.5950 15.67102284337194
STARLINK-1361,45567,53.0443,0.0002053,15.58936843,389.34315357087235,392.1224515117947,1 45567U 20025AN  26139.96806568  .00068452  00000+0  86488-3 0  9996,2 45567  53.0443  90.0221 0002053  38.4917 321.6240 15.58936843336635
STARLINK-1363,45568,53.031,0.0003587,16.05355323,257.2346109241462,261.99653461985326,1 45568U 20025AP  26139.98758929  .00450077  10562-3  62748-3 0  9995,2 45568  53.0310  35.4197 0003587 225.4723 134.6016 16.05355323337387
STARLINK-1366,45569,53.0327,0.0001665,15.98976362,276.14951207617014,278.36575848971916,1 45569U 20025AQ  26140.00002315  .00285243  44756-4  58178-3 0  9998,2 45569  53.0327  37.5148 0001665 224.8199 177.7275 15.98976362  5997
STARLINK-1376,45570,53.1574,0.0005645,15.36381182,452.96274459232154,460.6794122628662,1 45570U 20025AR  26139.89582216  .00036522  00000+0  10199-2 0  9991,2 45570  53.1574 105.4598 0005645  48.0898 312.0586 15.36381182336428
STARLINK-1320,45572,53.0441,0.0003857,15.81365484,323.9922369129108,329.16425425335365,1 45572U 20025AT  26140.00002315  .00118670  00000+0  58289-3 0  9993,2 45572  53.0441 350.5420 0003857 246.4378  81.6334 15.81365484  6015
STARLINK-1321,45573,53.0415,0.0005156,15.59928973,384.37390421827513,391.35100285476074,1 45573U 20025AU  26139.54053430  .00039141  00000+0  48049-3 0  9993,2 45573  53.0415  76.1350 0005156  60.8444 299.3084 15.59928973336486
STARLINK-1331,45578,53.0474,0.0006409,15.59731156,384.09782285806796,392.77121423053904,1 45578U 20025AZ  26139.94633529  .00070417  00000+0  86231-3 0  9991,2 45578  53.0474  81.0275 0006409  44.4709 315.6817 15.59731156336763
STARLINK-1333,45580,53.1577,0.0003386,15.33437373,463.24858936731744,467.8831449489571,1 45580U 20025BB  26139.90644633  .00051483  00000+0  15713-2 0  9996,2 45580  53.1577 106.5176 0003386  69.2823 290.8542 15.33437373336414
STARLINK-1335,45581,53.1554,0.000464,15.34894733,458.0597166870557,464.40665221822746,1 45581U 20025BC  26139.62982122  .00037492  00000+0  10976-2 0  9994,2 45581  53.1554 104.7486 0004640  60.9348 299.2119 15.34894733336408
STARLINK-1337,45582,53.0474,0.0007414,15.71534017,349.5205750478517,359.50374722398374,1 45582U 20025BD  26139.94484888  .00055726  00000+0  42733-3 0  9993,2 45582  53.0474  71.9775 0007414  52.2737 307.8951 15.71534017336871
STARLINK-1347,45586,53.0402,0.0004958,15.66342413,366.0353375271252,372.72617613479815,1 45586U 20025BH  26139.99626388  .00043400  00000+0  41401-3 0  9992,2 45586  53.0402  41.4647 0004958  81.1928 278.9648 15.66342413337300
STARLINK-1364,45589,53.0451,0.0005405,15.60737184,381.87069166599485,389.18221185735,1 45589U 20025BL  26139.93174323  .00034453  00000+0  41106-3 0  9996,2 45589  53.0451  78.3740 0005405  27.6653 332.4646 15.60737184336780
STARLINK-1365,45590,53.0469,0.0005516,15.55810019,396.06031625067226,403.5377352742935,1 45590U 20025BM  26139.62053876  .00061283  00000+0  87121-3 0  9991,2 45590  53.0469 112.7364 0005516  23.9187 336.2078 15.55810019336290
STARLINK-1443,45660,53.1349,0.0004453,15.30850476,470.22261996632824,476.32448620490595,1 45660U 20035D   26139.86904241  .00043621  00000+0  14466-2 0  9994,2 45660  53.1349  95.0929 0004453  43.4208 316.7143 15.30850476329647
STARLINK-1446,45663,53.0228,0.0004447,15.46351892,424.3822731237433,430.43512546869806,1 45663U 20035G   26139.92300010  .00018981  00000+0  38589-3 0  9992,2 45663  53.0228  20.1420 0004447 114.8517 245.2952 15.46351892330684
STARLINK-1448,45665,53.0452,0.000738,15.65732427,366.15216988725206,376.11409260096843,1 45665U 20035J   26139.96296671  .00042996  00000+0  42007-3 0  9998,2 45665  53.0452  65.6189 0007380  44.2811 315.8793 15.65732427330048
STARLINK-1451,45668,53.0511,0.0002719,15.13259445,524.3904926731266,528.1451080035513,1 45668U 20035M   26139.61514243  .00022379  00000+0  12568-2 0  9992,2 45668  53.0511 104.9709 0002719  58.6719 301.4539 15.13259445329470
STARLINK-1452,45669,53.0276,5.28e-05,15.55340482,400.8051237325026,401.5210178199768,1 45669U 20035N   26139.97911630  .00064400  00000+0  93122-3 0  9990,2 45669  53.0276  39.3153 0000528 125.2762 234.8298 15.55340482330424
STARLINK-1453,45670,53.0415,0.0002968,15.66184938,367.8302462890606,371.8358413070591,1 45670U 20035P   26139.93543628  .00047809  00000+0  45833-3 0  9996,2 45670  53.0415  26.1060 0002968 125.6282 234.5010 15.66184938330493
STARLINK-1454,45671,53.0436,0.0002638,15.64535055,372.79489984826523,376.35763136720016,1 45671U 20035Q   26139.95019833  .00109891  00000+0  11093-2 0  9995,2 45671  53.0436  66.7106 0002638  15.0791 345.0302 15.64535055330028
STARLINK-1456,45673,53.0433,0.0006532,15.62435778,376.2086861957887,385.0383309241706,1 45673U 20035S   26139.77396439  .00082592  00000+0  90911-3 0  9992,2 45673  53.0433  61.9774 0006532  79.7740 280.4009 15.62435778330095
STARLINK-1457,45674,53.0292,0.0009899,16.29249667,188.05069666267354,201.0633162566619,1 45674U 20035T   26139.96386979  .02929461  12056-4  66267-3 0  9995,2 45674  53.0292  17.3494 0009899 262.4556  97.5362 16.29249667330697
STARLINK-1458,45675,53.0477,0.0005509,15.53428745,402.9861433014985,410.46170306666227,1 45675U 20035U   26139.55735421  .00084259  00000+0  13002-2 0  9995,2 45675  53.0477  76.3485 0005509  35.8383 324.2995 15.53428745329830
STARLINK-1460,45676,53.1572,0.0004228,15.33206367,463.35946227492514,469.14707868764253,1 45676U 20035V   26139.29322608  .00039921  00000+0  12317-2 0  9990,2 45676  53.1572  96.5438 0004228  75.9338 284.2133 15.33206367329530
STARLINK-1392,45677,53.155,0.0003537,15.36390695,454.37534998062074,459.21037936689027,1 45677U 20035W   26139.87239209  .00034971  00000+0  97723-3 0  9994,2 45677  53.1550  92.9152 0003537  83.2733 276.8673 15.36390695329675
STARLINK-1394,45679,53.042,0.0007401,15.62256949,376.13673452983676,386.14181527194523,1 45679U 20035Y   26139.90083475  .00075029  00000+0  83270-3 0  9993,2 45679  53.0420  51.5906 0007401  92.7437 267.4424 15.62256949330247
STARLINK-1402,45685,53.0415,0.0007172,15.55464069,395.94211699640346,405.6658299287383,1 45685U 20035AE  26139.94872667  .00048054  00000+0  69427-3 0  9999,2 45685  53.0415  41.1923 0007172 110.4529 249.7252 15.55464069330403
STARLINK-1404,45686,53.1586,0.0005187,15.42217135,436.03092021699285,443.10360661986215,1 45686U 20035AF  26139.55148379  .00043671  00000+0  10050-2 0  9990,2 45686  53.1586  76.8866 0005187  91.1486 269.0114 15.42217135329873
STARLINK-1413,45689,53.1575,0.0003298,15.33208338,463.9901266803172,468.5046826336293,1 45689U 20035AJ  26139.52740882  .00041062  00000+0  12664-2 0  9992,2 45689  53.1575  80.0924 0003298  97.3637 262.7740 15.33208338329749
